{"type": "FeatureCollection", "features": [ {"type": "Feature", "properties": {"norad_id": 40315, "name": "COSMOS 2501 (702K)", "group": "gnss", "lat": 38.440156141903415, "lon": -139.61515535577797, "alt_km": 19174.154121371637, "timestamp": "2025-12-02T06:27:53.256596+00:00", "meta": {"OBJECT_NAME": "COSMOS 2501 (702K)", "OBJECT_ID": "2014-075A", "EPOCH": "2025-11-30T19:17:52.497312", "MEAN_MOTION": 2.13101305, "ECCENTRICITY": 0.00201676, "INCLINATION": 63.6137, "RA_OF_ASC_NODE": 197.2386, "ARG_OF_PERICENTER": 204.7979, "MEAN_ANOMALY": 155.1955, "EPHEMERIS_TYPE": 0, "CLASSIFICATION_TYPE": "U", "NORAD_CAT_ID": 40315, "ELEMENT_SET_NO": 999, "REV_AT_EPOCH": 8562, "BSTAR": 0, "MEAN_MOTION_DOT": 1e-06, "MEAN_MOTION_DDOT": 0}, "tle": {"line1": "1 40315U 14075A   25334.80407983  .00000100  00000+0  00000+0 0  9995", "line2": "2 40315  63.6137 197.2386 0020167 204.7979 155.1955  2.13101305 85629"}}, "geometry": {"type": "Point", "coordinates": [-139.61515535577797, 38.440156141903415]}}, {"type": "Feature", "properties": {"norad_id": 40534, "name": "GPS BIIF-9  (PRN 26)", "group": "gnss", "lat": 48.62974511318179, "lon": -25.793692456699887, "alt_km": 20086.9674613145, "timestamp": "2025-12-02T06:27:53.256607+00:00", "meta": {"OBJECT_NAME": "GPS BIIF-9  (PRN 26)", "OBJECT_ID": "2015-013A", "EPOCH": "2025-12-01T02:55:38.238240", "MEAN_MOTION": 2.00563184, "ECCENTRICITY": 0.01065399, "INCLINATION": 53.1998, "RA_OF_ASC_NODE": 212.3715, "ARG_OF_PERICENTER": 38.192, "MEAN_ANOMALY": 322.6465, "EPHEMERIS_TYPE": 0, "CLASSIFICATION_TYPE": "U", "NORAD_CAT_ID": 40534, "ELEMENT_SET_NO": 999, "REV_AT_EPOCH": 7785, "BSTAR": 0, "MEAN_MOTION_DOT": 6.6e-07, "MEAN_MOTION_DDOT": 0}, "tle": {"line1": "1 40534U 15013A   25335.12197035  .00000066  00000+0  00000+0 0  9992", "line2": "2 40534  53.1998 212.3715 0106539  38.1920 322.6465  2.00563184 77855"}}, "geometry": {"type": "Point", "coordinates": [-25.793692456699887, 48.62974511318179]}}, {"type": "Feature", "properties": {"norad_id": 40544, "name": "GSAT0203 (GALILEO 7)", "group": "gnss", "lat": 56.806099777682725, "lon": 79.34995424590088, "alt_km": 23234.700076706114, "timestamp": "2025-12-02T06:27:53.256618+00:00", "meta": {"OBJECT_NAME": "GSAT0203 (GALILEO 7)", "OBJECT_ID": "2015-017A", "EPOCH": "2025-11-29T04:30:08.373888", "MEAN_MOTION": 1.70475942, "ECCENTRICITY": 0.00064961, "INCLINATION": 56.8498, "RA_OF_ASC_NODE": 347.0502, "ARG_OF_PERICENTER": 266.8168, "MEAN_ANOMALY": 93.1521, "EPHEMERIS_TYPE": 0, "CLASSIFICATION_TYPE": "U", "NORAD_CAT_ID": 40544, "ELEMENT_SET_NO": 999, "REV_AT_EPOCH": 6579, "BSTAR": 0, "MEAN_MOTION_DOT": -5.6e-07, "MEAN_MOTION_DDOT": 0}, "tle": {"line1": "1 40544U 15017A   25333.18759692 -.00000056  00000+0  00000+0 0  9994", "line2": "2 40544  56.8498 347.0502 0006496 266.8168  93.1521  1.70475942 65799"}}, "geometry": {"type": "Point", "coordinates": [79.34995424590088, 56.806099777682725]}}, {"type": "Feature", "properties": {"norad_id": 40545, "name": "GSAT0204 (GALILEO 8)", "group": "gnss", "lat": -49.581176951654626, "lon": -63.12880968484607, "alt_km": 23212.260056599058, "timestamp": "2025-12-02T06:27:53.256629+00:00", "meta": {"OBJECT_NAME": "GSAT0204 (GALILEO 8)", "OBJECT_ID": "2015-017B", "EPOCH": "2025-12-01T04:52:01.322976", "MEAN_MOTION": 1.70475428, "ECCENTRICITY": 0.0006258, "INCLINATION": 56.8545, "RA_OF_ASC_NODE": 347.0126, "ARG_OF_PERICENTER": 260.1832, "MEAN_ANOMALY": 99.7883, "EPHEMERIS_TYPE": 0, "CLASSIFICATION_TYPE": "U", "NORAD_CAT_ID": 40545, "ELEMENT_SET_NO": 999, "REV_AT_EPOCH": 2887, "BSTAR": 0, "MEAN_MOTION_DOT": -5.9e-07, "MEAN_MOTION_DDOT": 0}, "tle": {"line1": "1 40545U 15017B   25335.20279309 -.00000059  00000+0  00000+0 0  9995", "line2": "2 40545  56.8545 347.0126 0006258 260.1832  99.7883  1.70475428 28876"}}, "geometry": {"type": "Point", "coordinates": [-63.12880968484607, -49.581176951654626]}}, {"type": "Feature", "properties": {"norad_id": 40730, "name": "GPS BIIF-10 (PRN 08)", "group": "gnss", "lat": -6.628133344772714, "lon": -89.63271870920062, "alt_km": 19941.51958056061, "timestamp": "2025-12-02T06:27:53.256640+00:00", "meta": {"OBJECT_NAME": "GPS BIIF-10 (PRN 08)", "OBJECT_ID": "2015-033A", "EPOCH": "2025-12-01T06:48:01.246464", "MEAN_MOTION": 2.00566025, "ECCENTRICITY": 0.01102431, "INCLINATION": 54.1407, "RA_OF_ASC_NODE": 275.2444, "ARG_OF_PERICENTER": 26.5275, "MEAN_ANOMALY": 334.0308, "EPHEMERIS_TYPE": 0, "CLASSIFICATION_TYPE": "U", "NORAD_CAT_ID": 40730, "ELEMENT_SET_NO": 999, "REV_AT_EPOCH": 7602, "BSTAR": 0, "MEAN_MOTION_DOT": -3.9e-07, "MEAN_MOTION_DDOT": 0}, "tle": {"line1": "1 40730U 15033A   25335.28334776 -.00000039  00000+0  00000+0 0  9995", "line2": "2 40730  54.1407 275.2444 0110243  26.5275 334.0308  2.00566025 76025"}}, "geometry": {"type": "Point", "coordinates": [-89.63271870920062, -6.628133344772714]}}, {"type": "Feature", "properties": {"norad_id": 40748, "name": "BEIDOU-3S M2S (C58)", "group": "gnss", "lat": 3.9785279298308778, "lon": -48.40702978602812, "alt_km": 21532.688817826966, "timestamp": "2025-12-02T06:27:53.256652+00:00", "meta": {"OBJECT_NAME": "BEIDOU-3S M2S (C58)", "OBJECT_ID": "2015-037A", "EPOCH": "2025-12-01T04:31:01.292160", "MEAN_MOTION": 1.86229002, "ECCENTRICITY": 0.0012493, "INCLINATION": 55.0491, "RA_OF_ASC_NODE": 308.8604, "ARG_OF_PERICENTER": 267.0141, "MEAN_ANOMALY": 92.8367, "EPHEMERIS_TYPE": 0, "CLASSIFICATION_TYPE": "U", "NORAD_CAT_ID": 40748, "ELEMENT_SET_NO": 999, "REV_AT_EPOCH": 7043, "BSTAR": 0, "MEAN_MOTION_DOT": -5.6e-07, "MEAN_MOTION_DDOT": 0}, "tle": {"line1": "1 40748U 15037A   25335.18820940 -.00000056  00000+0  00000+0 0  9999", "line2": "2 40748  55.0491 308.8604 0012493 267.0141  92.8367  1.86229002 70437"}}, "geometry": {"type": "Point", "coordinates": [-48.40702978602812, 3.9785279298308778]}}, {"type": "Feature", "properties": {"norad_id": 40749, "name": "BEIDOU-3S M1S (C57)", "group": "gnss", "lat": -23.892365200960587, "lon": 146.84106516435787, "alt_km": 21536.39015564013, "timestamp": "2025-12-02T06:27:53.256663+00:00", "meta": {"OBJECT_NAME": "BEIDOU-3S M1S (C57)", "OBJECT_ID": "2015-037B", "EPOCH": "2025-11-26T01:13:29.678016", "MEAN_MOTION": 1.8625392, "ECCENTRICITY": 0.00032681, "INCLINATION": 55.0504, "RA_OF_ASC_NODE": 309.0266, "ARG_OF_PERICENTER": 354.4635, "MEAN_ANOMALY": 5.5327, "EPHEMERIS_TYPE": 0, "CLASSIFICATION_TYPE": "U", "NORAD_CAT_ID": 40749, "ELEMENT_SET_NO": 999, "REV_AT_EPOCH": 7034, "BSTAR": 0, "MEAN_MOTION_DOT": -4e-07, "MEAN_MOTION_DDOT": 0}, "tle": {"line1": "1 40749U 15037B   25330.05103794 -.00000040  00000+0  00000+0 0  9995", "line2": "2 40749  55.0504 309.0266 0003268 354.4635   5.5327  1.86253920 70342"}}, "geometry": {"type": "Point", "coordinates": [146.84106516435787, -23.892365200960587]}}, {"type": "Feature", "properties": {"norad_id": 40889, "name": "GSAT0205 (GALILEO 9)", "group": "gnss", "lat": 52.91597789773854, "lon": -65.23155968264085, "alt_km": 23202.375042511176, "timestamp": "2025-12-02T06:27:53.256674+00:00", "meta": {"OBJECT_NAME": "GSAT0205 (GALILEO 9)", "OBJECT_ID": "2015-045A", "EPOCH": "2025-11-30T23:18:34.752384", "MEAN_MOTION": 1.70472884, "ECCENTRICITY": 0.00058923, "INCLINATION": 55.0077, "RA_OF_ASC_NODE": 227.0837, "ARG_OF_PERICENTER": 38.7902, "MEAN_ANOMALY": 321.3287, "EPHEMERIS_TYPE": 0, "CLASSIFICATION_TYPE": "U", "NORAD_CAT_ID": 40889, "ELEMENT_SET_NO": 999, "REV_AT_EPOCH": 6363, "BSTAR": 0, "MEAN_MOTION_DOT": 3e-07, "MEAN_MOTION_DDOT": 0}, "tle": {"line1": "1 40889U 15045A   25334.97123556  .00000030  00000+0  00000+0 0  9990", "line2": "2 40889  55.0077 227.0837 0005892  38.7902 321.3287  1.70472884 63632"}}, "geometry": {"type": "Point", "coordinates": [-65.23155968264085, 52.91597789773854]}}, {"type": "Feature", "properties": {"norad_id": 40890, "name": "GSAT0206 (GALILEO 10)", "group": "gnss", "lat": -44.463264299352836, "lon": -176.30726424077898, "alt_km": 23227.59878989591, "timestamp": "2025-12-02T06:27:53.256685+00:00", "meta": {"OBJECT_NAME": "GSAT0206 (GALILEO 10)", "OBJECT_ID": "2015-045B", "EPOCH": "2025-11-28T20:17:33.194976", "MEAN_MOTION": 1.70472951, "ECCENTRICITY": 0.00035605, "INCLINATION": 55.0075, "RA_OF_ASC_NODE": 227.1375, "ARG_OF_PERICENTER": 32.1082, "MEAN_ANOMALY": 327.9865, "EPHEMERIS_TYPE": 0, "CLASSIFICATION_TYPE": "U", "NORAD_CAT_ID": 40890, "ELEMENT_SET_NO": 999, "REV_AT_EPOCH": 6362, "BSTAR": 0, "MEAN_MOTION_DOT": 2.6e-07, "MEAN_MOTION_DDOT": 0}, "tle": {"line1": "1 40890U 15045B   25332.84552309  .00000026  00000+0  00000+0 0  9993", "line2": "2 40890  55.0075 227.1375 0003560  32.1082 327.9865  1.70472951 63625"}}, "geometry": {"type": "Point", "coordinates": [-176.30726424077898, -44.463264299352836]}}, {"type": "Feature", "properties": {"norad_id": 40938, "name": "BEIDOU-3S IGSO-2S (C56)", "group": "gnss", "lat": 2.589693375548707, "lon": -96.69321701489642, "alt_km": 36042.89729918365, "timestamp": "2025-12-02T06:27:53.256699+00:00", "meta": {"OBJECT_NAME": "BEIDOU-3S IGSO-2S (C56)", "OBJECT_ID": "2015-053A", "EPOCH": "2025-11-30T14:22:32.938176", "MEAN_MOTION": 1.00272475, "ECCENTRICITY": 0.0061056, "INCLINATION": 49.5325, "RA_OF_ASC_NODE": 261.1514, "ARG_OF_PERICENTER": 188.8099, "MEAN_ANOMALY": 291.5463, "EPHEMERIS_TYPE": 0, "CLASSIFICATION_TYPE": "U", "NORAD_CAT_ID": 40938, "ELEMENT_SET_NO": 999, "REV_AT_EPOCH": 3736, "BSTAR": 0, "MEAN_MOTION_DOT": -1.61e-06, "MEAN_MOTION_DDOT": 0}, "tle": {"line1": "1 40938U 15053A   25334.59899234 -.00000161  00000+0  00000+0 0  9991", "line2": "2 40938  49.5325 261.1514 0061056 188.8099 291.5463  1.00272475 37362"}}, "geometry": {"type": "Point", "coordinates": [-96.69321701489642, 2.589693375548707]}}]}